IRIDIUM 126             
1 42809U 17039G   24179.69568034  .00000087  00000+0  24179-4 0  9998
2 42809  86.3969 294.3063 0001968  97.7422 262.3997 14.34216948366823
IRIDIUM 124             
1 42810U 17039H   24179.67570851  .00000543  00000+0  15542-3 0  9998
2 42810  86.4498 231.0449 0002676  94.1287 266.0220 14.43276350371331
IRIDIUM 121             
1 42812U 17039K   24179.85424735  .00000094  00000+0  26375-4 0  9997
2 42812  86.3968 294.2627 0002304  94.5225 265.6234 14.34217746366728
IRIDIUM 133             
1 42955U 17061A   24179.92743830  .00000063  00000+0  15465-4 0  9992
2 42955  86.3976 325.8394 0002062  95.3014 264.8417 14.34218012351683
IRIDIUM 100             
1 42956U 17061B   24179.92109520  .00000446  00000+0  15222-3 0  9990
2 42956  86.3973 325.7776 0002015  93.4128 266.7298 14.34219149351687
IRIDIUM 122             
1 42957U 17061C   24179.88937825  .00000243  00000+0  79538-4 0  9999
2 42957  86.3973 325.7891 0002127  95.6716 264.4722 14.34220747351680
IRIDIUM 129             
1 42958U 17061D   24179.91475174  .00000079  00000+0  21181-4 0  9996
2 42958  86.3976 325.8380 0002006  98.1414 262.0009 14.34218374351705
